{"type": "FeatureCollection", "features": [{"type": "Feature", "geometry": {"type": "MultiLineString", "coordinates": [[[2533414.0985890483, 1152626.4968945174], [2533414.0707028634, 1152622.5950560328], [2533414.0707028634, 1152622.5950560328], [2533414.0513653737, 1152620.8498653104], [2533414.011691593, 1152615.19163523], [2533414.011691593, 1152615.19163523], [2533414.0119526642, 1152566.0423624406], [2533414.0119526642, 1152566.0423624406], [2533376.2088598674, 1152565.9721946695]]]}, "properties": {"u": 15000, "v": 3402256154, "length": 90.42130570699439, "diameter": 0.6, "geometry": {"type": "MultiLineString", "coordinates": [[[2533414.0985890483, 1152626.4968945174], [2533414.0707028634, 1152622.5950560328], [2533414.0707028634, 1152622.5950560328], [2533414.0513653737, 1152620.8498653104], [2533414.011691593, 1152615.19163523], [2533414.011691593, 1152615.19163523], [2533414.0119526642, 1152566.0423624406], [2533414.0119526642, 1152566.0423624406], [2533376.2088598674, 1152565.9721946695]]]}, "stroke-width": 6.0}}, {"type": "Feature", "geometry": {"type": "MultiLineString", "coordinates": [[[2533341.9728142316, 1152565.7809708174], [2533376.2088598674, 1152565.9721946695]]]}, "properties": {"u": 3402256154, "v": 75448000, "length": 34.23657966760419, "diameter": 0.5, "geometry": {"type": "MultiLineString", "coordinates": [[[2533341.9728142316, 1152565.7809708174], [2533376.2088598674, 1152565.9721946695]]]}, "stroke-width": 5.0}}, {"type": "Feature", "geometry": {"type": "MultiLineString", "coordinates": [[[2533433.94572944, 1152514.4710439392], [2533433.940407357, 1152518.840173633], [2533434.1147084706, 1152531.1116630484]], [[2533434.1147084706, 1152531.1116630484], [2533415.9909105957, 1152530.6342957262], [2533412.7949189804, 1152533.0821466914]], [[2533412.7949189804, 1152533.0821466914], [2533376.068569611, 1152533.2446258285], [2533376.073026049, 1152551.6435914903]], [[2533376.073026049, 1152551.6435914903], [2533376.2088598674, 1152565.9721946695]]]}, "properties": {"u": 3402256154, "v": 266880742, "length": 108.09875652282018, "diameter": 0.25, "geometry": {"type": "MultiLineString", "coordinates": [[[2533433.94572944, 1152514.4710439392], [2533433.940407357, 1152518.840173633], [2533434.1147084706, 1152531.1116630484]], [[2533434.1147084706, 1152531.1116630484], [2533415.9909105957, 1152530.6342957262], [2533412.7949189804, 1152533.0821466914]], [[2533412.7949189804, 1152533.0821466914], [2533376.068569611, 1152533.2446258285], [2533376.073026049, 1152551.6435914903]], [[2533376.073026049, 1152551.6435914903], [2533376.2088598674, 1152565.9721946695]]]}, "stroke-width": 2.5}}, {"type": "Feature", "geometry": {"type": "MultiLineString", "coordinates": [[[2533433.94572944, 1152514.4710439392], [2533419.9471728285, 1152514.3815424193], [2533412.4887494077, 1152516.5319854852], [2533388.237287927, 1152515.7223817904], [2533379.612970317, 1152508.4478946165]], [[2533384.545546148, 1152502.600045883], [2533379.612970317, 1152508.4478946163]]]}, "properties": {"u": 266880742, "v": 754045, "length": 64.95899556648074, "diameter": 0.15, "geometry": {"type": "MultiLineString", "coordinates": [[[2533433.94572944, 1152514.4710439392], [2533419.9471728285, 1152514.3815424193], [2533412.4887494077, 1152516.5319854852], [2533388.237287927, 1152515.7223817904], [2533379.612970317, 1152508.4478946165]], [[2533384.545546148, 1152502.600045883], [2533379.612970317, 1152508.4478946163]]]}, "stroke-width": 1.5}}, {"type": "Feature", "geometry": {"type": "MultiLineString", "coordinates": [[[2533456.980586808, 1152511.9947717458], [2533441.1675291494, 1152514.513342316], [2533433.94572944, 1152514.4710439392]]]}, "properties": {"u": 266880742, "v": 75393100, "length": 23.23429349312438, "diameter": 0.2, "geometry": {"type": "MultiLineString", "coordinates": [[[2533456.980586808, 1152511.9947717458], [2533441.1675291494, 1152514.513342316], [2533433.94572944, 1152514.4710439392]]]}, "stroke-width": 2.0}}, {"type": "Feature", "geometry": {"type": "MultiLineString", "coordinates": [[[2533480.966428157, 1152503.5113055913], [2533480.550657945, 1152508.2407294353], [2533456.980586808, 1152511.9947717458]], [[2533480.966428157, 1152503.5113055913], [2533486.1692105527, 1152503.4870693628]], [[2533486.1692105527, 1152503.4870693628], [2533486.184483374, 1152495.1600971387], [2533486.247694083, 1152491.857581037], [2533486.968778896, 1152483.5116796046], [2533487.923151226, 1152473.362205529], [2533487.949572031, 1152461.188549521]], [[2533487.949572031, 1152461.188549521], [2533487.950922449, 1152442.5894138864]], [[2533487.950922449, 1152442.5894138864], [2533488.0438711075, 1152435.039788095]], [[2533488.0438711075, 1152435.039788095], [2533482.308947053, 1152427.8993007857], [2533480.1111691017, 1152424.1660051104], [2533480.108481542, 1152396.8843600242]]]}, "properties": {"u": 75393100, "v": 5573828941, "length": 143.11301080532382, "diameter": 0.15, "geometry": {"type": "MultiLineString", "coordinates": [[[2533480.966428157, 1152503.5113055913], [2533480.550657945, 1152508.2407294353], [2533456.980586808, 1152511.9947717458]], [[2533480.966428157, 1152503.5113055913], [2533486.1692105527, 1152503.4870693628]], [[2533486.1692105527, 1152503.4870693628], [2533486.184483374, 1152495.1600971387], [2533486.247694083, 1152491.857581037], [2533486.968778896, 1152483.5116796046], [2533487.923151226, 1152473.362205529], [2533487.949572031, 1152461.188549521]], [[2533487.949572031, 1152461.188549521], [2533487.950922449, 1152442.5894138864]], [[2533487.950922449, 1152442.5894138864], [2533488.0438711075, 1152435.039788095]], [[2533488.0438711075, 1152435.039788095], [2533482.308947053, 1152427.8993007857], [2533480.1111691017, 1152424.1660051104], [2533480.108481542, 1152396.8843600242]]]}, "stroke-width": 1.5}}, {"type": "Feature", "geometry": {"type": "MultiLineString", "coordinates": [[[2533454.39500462, 1152495.7609759944], [2533456.980586808, 1152511.9947717458]]]}, "properties": {"u": 75393100, "v": 753931, "length": 16.438411107805468, "diameter": 0.09, "geometry": {"type": "MultiLineString", "coordinates": [[[2533454.39500462, 1152495.7609759944], [2533456.980586808, 1152511.9947717458]]]}, "stroke-width": 0.8999999999999999}}, {"type": "Feature", "geometry": {"type": "MultiLineString", "coordinates": [[[2533480.108481542, 1152396.8843600242], [2533476.2724408456, 1152396.9824087294]], [[2533464.311914712, 1152400.0831196303], [2533476.2724408456, 1152396.9824087294]]]}, "properties": {"u": 5573828941, "v": 75863600, "length": 16.182022679986545, "diameter": 0.15, "geometry": {"type": "MultiLineString", "coordinates": [[[2533480.108481542, 1152396.8843600242], [2533476.2724408456, 1152396.9824087294]], [[2533464.311914712, 1152400.0831196303], [2533476.2724408456, 1152396.9824087294]]]}, "stroke-width": 1.5}}, {"type": "Feature", "geometry": {"type": "MultiLineString", "coordinates": [[[2533470.660086485, 1152254.1083311439], [2533477.979629123, 1152266.958663272]], [[2533477.979629123, 1152266.958663272], [2533481.027845315, 1152267.0916812113], [2533480.7650769837, 1152271.0856739264], [2533480.4064461943, 1152276.1257470143], [2533480.1193169453, 1152277.918798625], [2533479.757298872, 1152279.8794375788]], [[2533479.757298872, 1152279.8794375788], [2533479.2940046913, 1152282.3970589], [2533478.121050561, 1152286.6679401197], [2533477.4169166987, 1152291.0003354151]], [[2533477.4169166987, 1152291.0003354151], [2533476.2563934745, 1152296.3939193112], [2533476.5214974233, 1152300.2375450975], [2533479.3062713407, 1152304.9982443405], [2533481.5154891117, 1152310.4545834812], [2533482.2815636243, 1152316.571695862], [2533481.936666393, 1152331.1724317276]], [[2533481.936666393, 1152331.1724317276], [2533489.1968060127, 1152331.1921313351]], [[2533489.1968060127, 1152331.1921313351], [2533488.1056218534, 1152343.5443293408], [2533488.1589759896, 1152360.1528751838]], [[2533488.1589759896, 1152360.1528751838], [2533488.076558578, 1152369.3477336895]], [[2533488.076558578, 1152369.3477336895], [2533481.647041638, 1152375.0330964488], [2533480.111646565, 1152380.5308843553], [2533480.108481542, 1152396.8843600242]]]}, "properties": {"u": 5573828941, "v": 754050, "length": 159.71730430525292, "diameter": 0.065, "geometry": {"type": "MultiLineString", "coordinates": [[[2533470.660086485, 1152254.1083311439], [2533477.979629123, 1152266.958663272]], [[2533477.979629123, 1152266.958663272], [2533481.027845315, 1152267.0916812113], [2533480.7650769837, 1152271.0856739264], [2533480.4064461943, 1152276.1257470143], [2533480.1193169453, 1152277.918798625], [2533479.757298872, 1152279.8794375788]], [[2533479.757298872, 1152279.8794375788], [2533479.2940046913, 1152282.3970589], [2533478.121050561, 1152286.6679401197], [2533477.4169166987, 1152291.0003354151]], [[2533477.4169166987, 1152291.0003354151], [2533476.2563934745, 1152296.3939193112], [2533476.5214974233, 1152300.2375450975], [2533479.3062713407, 1152304.9982443405], [2533481.5154891117, 1152310.4545834812], [2533482.2815636243, 1152316.571695862], [2533481.936666393, 1152331.1724317276]], [[2533481.936666393, 1152331.1724317276], [2533489.1968060127, 1152331.1921313351]], [[2533489.1968060127, 1152331.1921313351], [2533488.1056218534, 1152343.5443293408], [2533488.1589759896, 1152360.1528751838]], [[2533488.1589759896, 1152360.1528751838], [2533488.076558578, 1152369.3477336895]], [[2533488.076558578, 1152369.3477336895], [2533481.647041638, 1152375.0330964488], [2533480.111646565, 1152380.5308843553], [2533480.108481542, 1152396.8843600242]]]}, "stroke-width": 0.65}}, {"type": "Feature", "geometry": {"type": "MultiLineString", "coordinates": [[[2533270.8319378584, 1152444.642147276], [2533300.6314078188, 1152444.8332710112]], [[2533300.6314078188, 1152444.8332710112], [2533300.693950428, 1152435.0818049833]], [[2533355.3505779738, 1152435.025153778], [2533347.3371008597, 1152435.0201023666], [2533333.3850120944, 1152434.985870965], [2533318.504581291, 1152434.97308994], [2533300.693950428, 1152435.0818049833]]]}, "properties": {"u": 75863600, "v": 754137, "length": 94.20875785697135, "diameter": 0.1, "geometry": {"type": "MultiLineString", "coordinates": [[[2533270.8319378584, 1152444.642147276], [2533300.6314078188, 1152444.8332710112]], [[2533300.6314078188, 1152444.8332710112], [2533300.693950428, 1152435.0818049833]], [[2533355.3505779738, 1152435.025153778], [2533347.3371008597, 1152435.0201023666], [2533333.3850120944, 1152434.985870965], [2533318.504581291, 1152434.97308994], [2533300.693950428, 1152435.0818049833]]]}, "stroke-width": 1.0}}, {"type": "Feature", "geometry": {"type": "MultiLineString", "coordinates": [[[2533355.338743665, 1152453.7989091359], [2533355.3505779738, 1152435.025153778]]]}, "properties": {"u": 75863600, "v": 758636, "length": 18.773759087797355, "diameter": 0.125, "geometry": {"type": "MultiLineString", "coordinates": [[[2533355.338743665, 1152453.7989091359], [2533355.3505779738, 1152435.025153778]]]}, "stroke-width": 1.25}}, {"type": "Feature", "geometry": {"type": "MultiLineString", "coordinates": [[[2533341.83710355, 1152590.0781337651], [2533341.9728142316, 1152565.7809708174]]]}, "properties": {"u": 75448000, "v": 754480, "length": 24.29754194762821, "diameter": 0.1, "geometry": {"type": "MultiLineString", "coordinates": [[[2533341.83710355, 1152590.0781337651], [2533341.9728142316, 1152565.7809708174]]]}, "stroke-width": 1.0}}, {"type": "Feature", "geometry": {"type": "MultiLineString", "coordinates": [[[2533292.5510942014, 1152592.6588849581], [2533286.2063356303, 1152592.8071394847], [2533267.8763655117, 1152592.9732249747]], [[2533292.5510942014, 1152592.6588849581], [2533292.4386965604, 1152578.3856073208], [2533292.372749815, 1152570.3708154531], [2533293.4339488745, 1152567.802072388], [2533295.124173279, 1152566.593766701], [2533298.085518022, 1152565.8271588997], [2533310.2156967255, 1152565.603592904], [2533341.9728142316, 1152565.7809708174]]]}, "properties": {"u": 75448000, "v": 75425800, "length": 98.77182961791438, "diameter": 0.5, "geometry": {"type": "MultiLineString", "coordinates": [[[2533292.5510942014, 1152592.6588849581], [2533286.2063356303, 1152592.8071394847], [2533267.8763655117, 1152592.9732249747]], [[2533292.5510942014, 1152592.6588849581], [2533292.4386965604, 1152578.3856073208], [2533292.372749815, 1152570.3708154531], [2533293.4339488745, 1152567.802072388], [2533295.124173279, 1152566.593766701], [2533298.085518022, 1152565.8271588997], [2533310.2156967255, 1152565.603592904], [2533341.9728142316, 1152565.7809708174]]]}, "stroke-width": 5.0}}, {"type": "Feature", "geometry": {"type": "MultiLineString", "coordinates": [[[2533214.385512956, 1152469.9145643974], [2533222.6558841136, 1152469.7003689383]], [[2533222.6558841136, 1152469.7003689383], [2533222.3032850022, 1152509.7930275046]], [[2533222.3032850022, 1152509.7930275046], [2533222.2140721073, 1152520.410976028], [2533222.1586207533, 1152526.470484025]], [[2533222.1586207533, 1152526.470484025], [2533224.8946621343, 1152528.9081069452], [2533235.714430022, 1152538.5154688624]], [[2533235.714430022, 1152538.5154688624], [2533237.825940109, 1152542.0717593355], [2533237.867005997, 1152543.0051506357], [2533238.6454036813, 1152560.5728475754], [2533240.134435246, 1152567.5045756965], [2533241.6945528397, 1152577.3815810995], [2533241.678044512, 1152579.3495146534], [2533241.586494001, 1152593.2137207345]], [[2533267.8763655117, 1152592.9732249747], [2533253.564390044, 1152593.1029039347], [2533241.586494001, 1152593.2137207345]]]}, "properties": {"u": 75425800, "v": 418161362, "length": 165.02142361233368, "diameter": 0.5, "geometry": {"type": "MultiLineString", "coordinates": [[[2533214.385512956, 1152469.9145643974], [2533222.6558841136, 1152469.7003689383]], [[2533222.6558841136, 1152469.7003689383], [2533222.3032850022, 1152509.7930275046]], [[2533222.3032850022, 1152509.7930275046], [2533222.2140721073, 1152520.410976028], [2533222.1586207533, 1152526.470484025]], [[2533222.1586207533, 1152526.470484025], [2533224.8946621343, 1152528.9081069452], [2533235.714430022, 1152538.5154688624]], [[2533235.714430022, 1152538.5154688624], [2533237.825940109, 1152542.0717593355], [2533237.867005997, 1152543.0051506357], [2533238.6454036813, 1152560.5728475754], [2533240.134435246, 1152567.5045756965], [2533241.6945528397, 1152577.3815810995], [2533241.678044512, 1152579.3495146534], [2533241.586494001, 1152593.2137207345]], [[2533267.8763655117, 1152592.9732249747], [2533253.564390044, 1152593.1029039347], [2533241.586494001, 1152593.2137207345]]]}, "stroke-width": 5.0}}, {"type": "Feature", "geometry": {"type": "MultiLineString", "coordinates": [[[2533268.0435150135, 1152611.4206244152], [2533267.8763655117, 1152592.9732249747]]]}, "properties": {"u": 75425800, "v": 754258, "length": 18.448156684927735, "diameter": 0.032, "geometry": {"type": "MultiLineString", "coordinates": [[[2533268.0435150135, 1152611.4206244152], [2533267.8763655117, 1152592.9732249747]]]}, "stroke-width": 0.32}}, {"type": "Feature", "geometry": {"type": "MultiLineString", "coordinates": [[[2533183.9262313833, 1152412.7486634762], [2533209.3725552284, 1152413.1389844394]], [[2533214.289188348, 1152429.4822602964], [2533211.9567629173, 1152423.3158832237], [2533210.549560849, 1152418.2287128891], [2533209.3725552284, 1152413.1389844394]], [[2533214.289188348, 1152429.4822602964], [2533214.385512956, 1152469.9145643974]]]}, "properties": {"u": 418161362, "v": 754082, "length": 82.98751524280304, "diameter": 0.08, "geometry": {"type": "MultiLineString", "coordinates": [[[2533183.9262313833, 1152412.7486634762], [2533209.3725552284, 1152413.1389844394]], [[2533214.289188348, 1152429.4822602964], [2533211.9567629173, 1152423.3158832237], [2533210.549560849, 1152418.2287128891], [2533209.3725552284, 1152413.1389844394]], [[2533214.289188348, 1152429.4822602964], [2533214.385512956, 1152469.9145643974]]]}, "stroke-width": 0.8}}, {"type": "Feature", "geometry": {"type": "MultiLineString", "coordinates": [[[2533214.385512956, 1152469.9145643974], [2533206.8385119094, 1152470.998992596]]]}, "properties": {"u": 418161362, "v": 418161366, "length": 7.602704949654034, "diameter": 0.5, "geometry": {"type": "MultiLineString", "coordinates": [[[2533214.385512956, 1152469.9145643974], [2533206.8385119094, 1152470.998992596]]]}, "stroke-width": 5.0}}, {"type": "Feature", "geometry": {"type": "MultiLineString", "coordinates": [[[2533206.8385119094, 1152470.998992596], [2533205.8215677454, 1152509.9984312735]], [[2533205.8215677454, 1152509.9984312735], [2533205.745733614, 1152514.9130911352]], [[2533095.2135743606, 1152512.480183902], [2533107.0372135406, 1152512.4757532228], [2533172.4358361927, 1152512.4596413842], [2533196.2868739986, 1152512.4501517564], [2533205.745733614, 1152514.9130911352]]]}, "properties": {"u": 418161366, "v": 75408800, "length": 154.78702416071346, "diameter": 0.125, "geometry": {"type": "MultiLineString", "coordinates": [[[2533206.8385119094, 1152470.998992596], [2533205.8215677454, 1152509.9984312735]], [[2533205.8215677454, 1152509.9984312735], [2533205.745733614, 1152514.9130911352]], [[2533095.2135743606, 1152512.480183902], [2533107.0372135406, 1152512.4757532228], [2533172.4358361927, 1152512.4596413842], [2533196.2868739986, 1152512.4501517564], [2533205.745733614, 1152514.9130911352]]]}, "stroke-width": 1.25}}, {"type": "Feature", "geometry": {"type": "MultiLineString", "coordinates": [[[2533206.8385119094, 1152470.998992596], [2533188.9803401977, 1152470.9640438852], [2533174.4612533757, 1152471.003188973], [2533161.19129355, 1152470.8839518966], [2533153.240480154, 1152470.8500981194]], [[2533153.240480154, 1152470.8500981194], [2533153.433080868, 1152468.157585139], [2533153.7173588714, 1152456.4590930357], [2533150.521376699, 1152452.0032816648], [2533150.5063661663, 1152443.0651926792]], [[2533095.336566064, 1152447.3723402265], [2533131.181743659, 1152447.8049036884], [2533137.766040134, 1152443.6516179706], [2533150.5063661663, 1152443.0651926792]]]}, "properties": {"u": 418161366, "v": 75408600, "length": 138.65364576782713, "diameter": 0.5, "geometry": {"type": "MultiLineString", "coordinates": [[[2533206.8385119094, 1152470.998992596], [2533188.9803401977, 1152470.9640438852], [2533174.4612533757, 1152471.003188973], [2533161.19129355, 1152470.8839518966], [2533153.240480154, 1152470.8500981194]], [[2533153.240480154, 1152470.8500981194], [2533153.433080868, 1152468.157585139], [2533153.7173588714, 1152456.4590930357], [2533150.521376699, 1152452.0032816648], [2533150.5063661663, 1152443.0651926792]], [[2533095.336566064, 1152447.3723402265], [2533131.181743659, 1152447.8049036884], [2533137.766040134, 1152443.6516179706], [2533150.5063661663, 1152443.0651926792]]]}, "stroke-width": 5.0}}, {"type": "Feature", "geometry": {"type": "MultiLineString", "coordinates": [[[2533095.2108314624, 1152457.7915723699], [2533095.336566064, 1152447.3723402265]]]}, "properties": {"u": 75408600, "v": 754086, "length": 10.419990769980696, "diameter": 0.2, "geometry": {"type": "MultiLineString", "coordinates": [[[2533095.2108314624, 1152457.7915723699], [2533095.336566064, 1152447.3723402265]]]}, "stroke-width": 2.0}}, {"type": "Feature", "geometry": {"type": "MultiLineString", "coordinates": [[[2533003.661247205, 1152445.2007548637], [2533018.3870994938, 1152456.820874794]], [[2533018.3870994938, 1152456.820874794], [2533043.398261387, 1152456.9090233818]], [[2533043.398261387, 1152456.9090233818], [2533054.118079243, 1152446.4839177937], [2533063.6515534343, 1152437.0281278123]], [[2533063.6515534343, 1152437.0281278123], [2533065.3666641028, 1152440.121850486], [2533068.2132025207, 1152442.1357175284], [2533072.704162831, 1152442.9639622672], [2533075.7769302027, 1152443.2410246655], [2533088.530496904, 1152447.2902076486], [2533095.336566064, 1152447.3723402265]]]}, "properties": {"u": 75408600, "v": 1271743087, "length": 106.87070046790024, "diameter": 0.45, "geometry": {"type": "MultiLineString", "coordinates": [[[2533003.661247205, 1152445.2007548637], [2533018.3870994938, 1152456.820874794]], [[2533018.3870994938, 1152456.820874794], [2533043.398261387, 1152456.9090233818]], [[2533043.398261387, 1152456.9090233818], [2533054.118079243, 1152446.4839177937], [2533063.6515534343, 1152437.0281278123]], [[2533063.6515534343, 1152437.0281278123], [2533065.3666641028, 1152440.121850486], [2533068.2132025207, 1152442.1357175284], [2533072.704162831, 1152442.9639622672], [2533075.7769302027, 1152443.2410246655], [2533088.530496904, 1152447.2902076486], [2533095.336566064, 1152447.3723402265]]]}, "stroke-width": 4.5}}, {"type": "Feature", "geometry": {"type": "MultiLineString", "coordinates": [[[2533003.528507288, 1152452.984695482], [2533003.661247205, 1152445.2007548637]]]}, "properties": {"u": 1271743087, "v": 71977300, "length": 7.785072346240285, "diameter": 0.4, "geometry": {"type": "MultiLineString", "coordinates": [[[2533003.528507288, 1152452.984695482], [2533003.661247205, 1152445.2007548637]]]}, "stroke-width": 4.0}}, {"type": "Feature", "geometry": {"type": "MultiLineString", "coordinates": [[[2533003.661247205, 1152445.2007548637], [2533003.7183699035, 1152441.3757885937], [2533003.838281129, 1152423.2200042484], [2533003.9543768642, 1152415.0475410547]], [[2533003.9543768642, 1152415.0475410547], [2533004.1936373888, 1152408.2855938731], [2533005.020015856, 1152400.4943157313], [2533004.954028247, 1152372.5463188929]], [[2533004.954028247, 1152372.5463188929], [2533004.960601828, 1152346.976602033]], [[2533004.960601828, 1152346.976602033], [2532991.0681867315, 1152346.1198213717]], [[2532991.0681867315, 1152346.1198213717], [2532991.089881869, 1152344.117849324]]]}, "properties": {"u": 1271743087, "v": 75424300, "length": 114.18011413068231, "diameter": 0.25, "geometry": {"type": "MultiLineString", "coordinates": [[[2533003.661247205, 1152445.2007548637], [2533003.7183699035, 1152441.3757885937], [2533003.838281129, 1152423.2200042484], [2533003.9543768642, 1152415.0475410547]], [[2533003.9543768642, 1152415.0475410547], [2533004.1936373888, 1152408.2855938731], [2533005.020015856, 1152400.4943157313], [2533004.954028247, 1152372.5463188929]], [[2533004.954028247, 1152372.5463188929], [2533004.960601828, 1152346.976602033]], [[2533004.960601828, 1152346.976602033], [2532991.0681867315, 1152346.1198213717]], [[2532991.0681867315, 1152346.1198213717], [2532991.089881869, 1152344.117849324]]]}, "stroke-width": 2.5}}, {"type": "Feature", "geometry": {"type": "MultiLineString", "coordinates": [[[2532964.336121729, 1152343.827921946], [2532991.089881869, 1152344.117849324]]]}, "properties": {"u": 75424300, "v": 754243, "length": 26.75533104839067, "diameter": 0.2, "geometry": {"type": "MultiLineString", "coordinates": [[[2532964.336121729, 1152343.827921946], [2532991.089881869, 1152344.117849324]]]}, "stroke-width": 2.0}}, {"type": "Feature", "geometry": {"type": "MultiLineString", "coordinates": [[[2532984.129572075, 1152196.2529499023], [2532984.6211104803, 1152225.6252825328]], [[2532984.6211104803, 1152225.6252825328], [2532984.670312561, 1152236.919845798], [2532984.6697277166, 1152238.9320720662]], [[2532984.6697277166, 1152238.9320720662], [2532984.786352766, 1152241.1319843312], [2532984.8009909764, 1152243.1329236121], [2532984.789509824, 1152244.8562232505]], [[2532984.789509824, 1152244.8562232505], [2532989.1275418247, 1152246.408732968], [2532993.942691984, 1152248.0782156894]], [[2532993.942691984, 1152248.0782156894], [2532995.141627739, 1152248.9208753386]], [[2532995.141627739, 1152248.9208753386], [2532997.2119129836, 1152252.1996123604], [2533000.8852713406, 1152259.5293864273], [2533002.473988986, 1152263.6695211225], [2533005.206165021, 1152276.06813264]], [[2533005.206165021, 1152276.06813264], [2533005.0458975895, 1152285.7863834987]], [[2533005.0458975895, 1152285.7863834987], [2532997.6479448136, 1152285.8021556344]], [[2532997.6479448136, 1152285.8021556344], [2532997.5591992843, 1152318.4544678289]], [[2532997.5591992843, 1152318.4544678289], [2532991.367003802, 1152318.5457430086]], [[2532991.089881869, 1152344.117849324], [2532991.367003802, 1152318.5457430086]]]}, "properties": {"u": 75424300, "v": 75399500, "length": 170.4687574630793, "diameter": 0.2, "geometry": {"type": "MultiLineString", "coordinates": [[[2532984.129572075, 1152196.2529499023], [2532984.6211104803, 1152225.6252825328]], [[2532984.6211104803, 1152225.6252825328], [2532984.670312561, 1152236.919845798], [2532984.6697277166, 1152238.9320720662]], [[2532984.6697277166, 1152238.9320720662], [2532984.786352766, 1152241.1319843312], [2532984.8009909764, 1152243.1329236121], [2532984.789509824, 1152244.8562232505]], [[2532984.789509824, 1152244.8562232505], [2532989.1275418247, 1152246.408732968], [2532993.942691984, 1152248.0782156894]], [[2532993.942691984, 1152248.0782156894], [2532995.141627739, 1152248.9208753386]], [[2532995.141627739, 1152248.9208753386], [2532997.2119129836, 1152252.1996123604], [2533000.8852713406, 1152259.5293864273], [2533002.473988986, 1152263.6695211225], [2533005.206165021, 1152276.06813264]], [[2533005.206165021, 1152276.06813264], [2533005.0458975895, 1152285.7863834987]], [[2533005.0458975895, 1152285.7863834987], [2532997.6479448136, 1152285.8021556344]], [[2532997.6479448136, 1152285.8021556344], [2532997.5591992843, 1152318.4544678289]], [[2532997.5591992843, 1152318.4544678289], [2532991.367003802, 1152318.5457430086]], [[2532991.089881869, 1152344.117849324], [2532991.367003802, 1152318.5457430086]]]}, "stroke-width": 2.0}}, {"type": "Feature", "geometry": {"type": "MultiLineString", "coordinates": [[[2532962.0656530233, 1152196.6221838929], [2532984.129572075, 1152196.2529499023]]]}, "properties": {"u": 75399500, "v": 753995, "length": 22.067008353040197, "diameter": 0.15, "geometry": {"type": "MultiLineString", "coordinates": [[[2532962.0656530233, 1152196.6221838929], [2532984.129572075, 1152196.2529499023]]]}, "stroke-width": 1.5}}, {"type": "Feature", "geometry": {"type": "MultiLineString", "coordinates": [[[2532983.816061953, 1152177.5188622524], [2532984.129572075, 1152196.2529499023]], [[2532983.816061953, 1152177.5188622524], [2532983.5489548906, 1152161.8243037406]], [[2532983.5489548906, 1152161.8243037406], [2532981.1391747682, 1152153.568835343], [2532981.0620427253, 1152137.705399971]], [[2532981.0620427253, 1152137.705399971], [2532976.50206508, 1152132.086462129], [2532970.197346461, 1152128.299096511], [2532965.208796813, 1152125.5420767288], [2532951.2381688002, 1152120.4728222266], [2532944.131951556, 1152119.1402175725], [2532934.9874954624, 1152117.4079109547], [2532933.9744499573, 1152117.3310013511]]]}, "properties": {"u": 75399500, "v": 75429800, "length": 111.61188234413466, "diameter": 0.09, "geometry": {"type": "MultiLineString", "coordinates": [[[2532983.816061953, 1152177.5188622524], [2532984.129572075, 1152196.2529499023]], [[2532983.816061953, 1152177.5188622524], [2532983.5489548906, 1152161.8243037406]], [[2532983.5489548906, 1152161.8243037406], [2532981.1391747682, 1152153.568835343], [2532981.0620427253, 1152137.705399971]], [[2532981.0620427253, 1152137.705399971], [2532976.50206508, 1152132.086462129], [2532970.197346461, 1152128.299096511], [2532965.208796813, 1152125.5420767288], [2532951.2381688002, 1152120.4728222266], [2532944.131951556, 1152119.1402175725], [2532934.9874954624, 1152117.4079109547], [2532933.9744499573, 1152117.3310013511]]]}, "stroke-width": 0.8999999999999999}}, {"type": "Feature", "geometry": {"type": "MultiLineString", "coordinates": [[[2532932.6200847146, 1152135.1705630748], [2532933.9744499573, 1152117.3310013511]]]}, "properties": {"u": 75429800, "v": 754298, "length": 17.89089901883041, "diameter": 0.065, "geometry": {"type": "MultiLineString", "coordinates": [[[2532932.6200847146, 1152135.1705630748], [2532933.9744499573, 1152117.3310013511]]]}, "stroke-width": 0.65}}, {"type": "Feature", "geometry": {"type": "MultiLineString", "coordinates": [[[2532933.9744499573, 1152117.3310013511], [2532905.369040487, 1152115.1593015676], [2532902.8970594006, 1152115.2055063904]], [[2532903.174516406, 1152130.0495946733], [2532902.8970594006, 1152115.2055063904]]]}, "properties": {"u": 75429800, "v": 754450, "length": 46.00682183375342, "diameter": 0.065, "geometry": {"type": "MultiLineString", "coordinates": [[[2532933.9744499573, 1152117.3310013511], [2532905.369040487, 1152115.1593015676], [2532902.8970594006, 1152115.2055063904]], [[2532903.174516406, 1152130.0495946733], [2532902.8970594006, 1152115.2055063904]]]}, "stroke-width": 0.65}}, {"type": "Feature", "geometry": {"type": "MultiLineString", "coordinates": [[[2532992.2331795003, 1152482.9489000004], [2532992.25072273, 1152481.081008544], [2533003.4060202627, 1152460.1674009748], [2533003.528507288, 1152452.984695482]]]}, "properties": {"u": 71977300, "v": 4949820074, "length": 32.75445860335371, "diameter": 0.35, "geometry": {"type": "MultiLineString", "coordinates": [[[2532992.2331795003, 1152482.9489000004], [2532992.25072273, 1152481.081008544], [2533003.4060202627, 1152460.1674009748], [2533003.528507288, 1152452.984695482]]]}, "stroke-width": 3.5}}, {"type": "Feature", "geometry": {"type": "MultiLineString", "coordinates": [[[2532985.11001083, 1152452.6706039684], [2533003.528507288, 1152452.984695482]]]}, "properties": {"u": 71977300, "v": 719773, "length": 18.42117437209507, "diameter": 0.15, "geometry": {"type": "MultiLineString", "coordinates": [[[2532985.11001083, 1152452.6706039684], [2533003.528507288, 1152452.984695482]]]}, "stroke-width": 1.5}}, {"type": "Feature", "geometry": {"type": "MultiLineString", "coordinates": [[[2532992.2331795003, 1152482.9489000004], [2532991.9775052015, 1152513.7020291185], [2532992.2276346046, 1152573.2987501707]], [[2532992.2276346046, 1152573.2987501707], [2532992.252730101, 1152578.9904960073], [2532992.4128229064, 1152616.5049646765]]]}, "properties": {"u": 4949820074, "v": 75444900, "length": 133.58207738901726, "diameter": 0.2, "geometry": {"type": "MultiLineString", "coordinates": [[[2532992.2331795003, 1152482.9489000004], [2532991.9775052015, 1152513.7020291185], [2532992.2276346046, 1152573.2987501707]], [[2532992.2276346046, 1152573.2987501707], [2532992.252730101, 1152578.9904960073], [2532992.4128229064, 1152616.5049646765]]]}, "stroke-width": 2.0}}, {"type": "Feature", "geometry": {"type": "MultiLineString", "coordinates": [[[2532992.2331795003, 1152482.9489000004], [2532969.882740113, 1152482.6534111425], [2532934.0673154113, 1152482.6416659593]], [[2532934.0673154113, 1152482.6416659593], [2532898.874534669, 1152482.7232367534]], [[2532862.2050716877, 1152482.7283810915], [2532888.6372414264, 1152482.726380892], [2532898.874534669, 1152482.7232367534]]]}, "properties": {"u": 4949820074, "v": 75844900, "length": 129.75805821055354, "diameter": 0.3, "geometry": {"type": "MultiLineString", "coordinates": [[[2532992.2331795003, 1152482.9489000004], [2532969.882740113, 1152482.6534111425], [2532934.0673154113, 1152482.6416659593]], [[2532934.0673154113, 1152482.6416659593], [2532898.874534669, 1152482.7232367534]], [[2532862.2050716877, 1152482.7283810915], [2532888.6372414264, 1152482.726380892], [2532898.874534669, 1152482.7232367534]]]}, "stroke-width": 3.0}}, {"type": "Feature", "geometry": {"type": "MultiLineString", "coordinates": [[[2532862.206769194, 1152505.1605300838], [2532862.2050716877, 1152482.7283810915]]]}, "properties": {"u": 75844900, "v": 758449, "length": 22.43214905654443, "diameter": 0.2, "geometry": {"type": "MultiLineString", "coordinates": [[[2532862.206769194, 1152505.1605300838], [2532862.2050716877, 1152482.7283810915]]]}, "stroke-width": 2.0}}, {"type": "Feature", "geometry": {"type": "MultiLineString", "coordinates": [[[2532731.1920038825, 1152433.8587932147], [2532749.8665306354, 1152482.1431966121]], [[2532749.8665306354, 1152482.1431966121], [2532815.510229161, 1152482.7319146267], [2532862.2050716877, 1152482.7283810915]]]}, "properties": {"u": 75844900, "v": 415963477, "length": 164.10468767102176, "diameter": 0.25, "geometry": {"type": "MultiLineString", "coordinates": [[[2532731.1920038825, 1152433.8587932147], [2532749.8665306354, 1152482.1431966121]], [[2532749.8665306354, 1152482.1431966121], [2532815.510229161, 1152482.7319146267], [2532862.2050716877, 1152482.7283810915]]]}, "stroke-width": 2.5}}, {"type": "Feature", "geometry": {"type": "MultiLineString", "coordinates": [[[2532731.1920038825, 1152433.8587932147], [2532772.529147139, 1152433.9782556402]], [[2532772.5898221675, 1152412.9830988566], [2532772.529147139, 1152433.9782556402]]]}, "properties": {"u": 415963477, "v": 754389, "length": 62.33256033383751, "diameter": 0.15, "geometry": {"type": "MultiLineString", "coordinates": [[[2532731.1920038825, 1152433.8587932147], [2532772.529147139, 1152433.9782556402]], [[2532772.5898221675, 1152412.9830988566], [2532772.529147139, 1152433.9782556402]]]}, "stroke-width": 1.5}}, {"type": "Feature", "geometry": {"type": "MultiLineString", "coordinates": [[[2532697.2550950316, 1152350.125706401], [2532689.216996927, 1152327.9256595578], [2532687.702499733, 1152318.7820147527], [2532687.4181246515, 1152311.8925095068], [2532687.589672682, 1152304.5976769207], [2532690.259066006, 1152286.4152517184]], [[2532697.2550950316, 1152350.125706401], [2532731.1920038825, 1152433.8587932147]]]}, "properties": {"u": 415963477, "v": 70584600, "length": 155.78301510242073, "diameter": 0.2, "geometry": {"type": "MultiLineString", "coordinates": [[[2532697.2550950316, 1152350.125706401], [2532689.216996927, 1152327.9256595578], [2532687.702499733, 1152318.7820147527], [2532687.4181246515, 1152311.8925095068], [2532687.589672682, 1152304.5976769207], [2532690.259066006, 1152286.4152517184]], [[2532697.2550950316, 1152350.125706401], [2532731.1920038825, 1152433.8587932147]]]}, "stroke-width": 2.0}}, {"type": "Feature", "geometry": {"type": "MultiLineString", "coordinates": [[[2532690.259066006, 1152286.4152517184], [2532691.040798446, 1152281.0905243785], [2532692.2162868176, 1152272.9840066005], [2532692.7480325717, 1152264.2732504662], [2532692.371320214, 1152255.305855026], [2532689.1539286505, 1152248.293558188]], [[2532689.1539286505, 1152248.293558188], [2532700.1788305044, 1152245.2573692142], [2532720.1586040515, 1152242.1098261108], [2532730.475990225, 1152241.6830481768], [2532740.793377666, 1152241.256287938]], [[2532740.793377666, 1152241.256287938], [2532740.8163416833, 1152246.7368308424], [2532741.4236227316, 1152248.1975102273], [2532745.247834293, 1152251.8345193563], [2532747.1963116582, 1152254.5030867378]], [[2532747.1963116582, 1152254.5030867378], [2532802.70316709, 1152254.282407642]], [[2532802.70316709, 1152254.282407642], [2532802.8027860927, 1152277.605263343]], [[2532804.334112323, 1152276.1890861858], [2532802.8027860927, 1152277.605263343]], [[2532817.247685693, 1152290.1526595466], [2532804.334112323, 1152276.1890861858]]]}, "properties": {"u": 70584600, "v": 753998, "length": 206.57134558492396, "diameter": 0.1, "geometry": {"type": "MultiLineString", "coordinates": [[[2532690.259066006, 1152286.4152517184], [2532691.040798446, 1152281.0905243785], [2532692.2162868176, 1152272.9840066005], [2532692.7480325717, 1152264.2732504662], [2532692.371320214, 1152255.305855026], [2532689.1539286505, 1152248.293558188]], [[2532689.1539286505, 1152248.293558188], [2532700.1788305044, 1152245.2573692142], [2532720.1586040515, 1152242.1098261108], [2532730.475990225, 1152241.6830481768], [2532740.793377666, 1152241.256287938]], [[2532740.793377666, 1152241.256287938], [2532740.8163416833, 1152246.7368308424], [2532741.4236227316, 1152248.1975102273], [2532745.247834293, 1152251.8345193563], [2532747.1963116582, 1152254.5030867378]], [[2532747.1963116582, 1152254.5030867378], [2532802.70316709, 1152254.282407642]], [[2532802.70316709, 1152254.282407642], [2532802.8027860927, 1152277.605263343]], [[2532804.334112323, 1152276.1890861858], [2532802.8027860927, 1152277.605263343]], [[2532817.247685693, 1152290.1526595466], [2532804.334112323, 1152276.1890861858]]]}, "stroke-width": 1.0}}, {"type": "Feature", "geometry": {"type": "MultiLineString", "coordinates": [[[2532723.940622353, 1152291.3600993208], [2532690.259066006, 1152286.4152517184]]]}, "properties": {"u": 70584600, "v": 705846, "length": 34.042602070866515, "diameter": 0.15, "geometry": {"type": "MultiLineString", "coordinates": [[[2532723.940622353, 1152291.3600993208], [2532690.259066006, 1152286.4152517184]]]}, "stroke-width": 1.5}}, {"type": "Feature", "geometry": {"type": "MultiLineString", "coordinates": [[[2532983.82976873, 1152616.5415928168], [2532992.4128229064, 1152616.5049646765]]]}, "properties": {"u": 75444900, "v": 754449, "length": 8.583132331377964, "diameter": 0.09, "geometry": {"type": "MultiLineString", "coordinates": [[[2532983.82976873, 1152616.5415928168], [2532992.4128229064, 1152616.5049646765]]]}, "stroke-width": 0.8999999999999999}}, {"type": "Feature", "geometry": {"type": "MultiLineString", "coordinates": [[[2532930.819062203, 1152637.8523365343], [2532934.3108209893, 1152630.298113103], [2532934.958469596, 1152626.4443205302], [2532934.8911552913, 1152608.895626155]], [[2532930.819062203, 1152637.8523365343], [2532930.9997936157, 1152648.5451035434], [2532931.0001846375, 1152649.2677197303], [2532931.041637098, 1152662.6079441977], [2532931.454545369, 1152664.53773546], [2532932.178323281, 1152666.130540062], [2532932.9520898284, 1152667.389269666], [2532933.984876026, 1152668.4783500321], [2532935.2695050696, 1152669.442330337], [2532936.5660061757, 1152670.0948957235], [2532939.0023050965, 1152670.423459005], [2532951.703696533, 1152671.8937308725], [2532956.207600708, 1152671.8323634956]], [[2532956.207600708, 1152671.8323634956], [2532960.136032843, 1152671.7774194237]], [[2532960.136032843, 1152671.7774194237], [2532970.3281621197, 1152669.8182631694], [2532977.131078365, 1152668.0970340166], [2532982.3967165104, 1152668.2161836375], [2532992.5194656253, 1152668.2922934394]], [[2532992.5194656253, 1152668.2922934394], [2532992.6160681755, 1152665.2562102724], [2532992.614805056, 1152663.7665144608], [2532992.5952979433, 1152659.2642505746]], [[2532992.4128229064, 1152616.5049646765], [2532992.5952979433, 1152659.2642505746]]]}, "properties": {"u": 75444900, "v": 74406500, "length": 172.38671993570006, "diameter": 0.2, "geometry": {"type": "MultiLineString", "coordinates": [[[2532930.819062203, 1152637.8523365343], [2532934.3108209893, 1152630.298113103], [2532934.958469596, 1152626.4443205302], [2532934.8911552913, 1152608.895626155]], [[2532930.819062203, 1152637.8523365343], [2532930.9997936157, 1152648.5451035434], [2532931.0001846375, 1152649.2677197303], [2532931.041637098, 1152662.6079441977], [2532931.454545369, 1152664.53773546], [2532932.178323281, 1152666.130540062], [2532932.9520898284, 1152667.389269666], [2532933.984876026, 1152668.4783500321], [2532935.2695050696, 1152669.442330337], [2532936.5660061757, 1152670.0948957235], [2532939.0023050965, 1152670.423459005], [2532951.703696533, 1152671.8937308725], [2532956.207600708, 1152671.8323634956]], [[2532956.207600708, 1152671.8323634956], [2532960.136032843, 1152671.7774194237]], [[2532960.136032843, 1152671.7774194237], [2532970.3281621197, 1152669.8182631694], [2532977.131078365, 1152668.0970340166], [2532982.3967165104, 1152668.2161836375], [2532992.5194656253, 1152668.2922934394]], [[2532992.5194656253, 1152668.2922934394], [2532992.6160681755, 1152665.2562102724], [2532992.614805056, 1152663.7665144608], [2532992.5952979433, 1152659.2642505746]], [[2532992.4128229064, 1152616.5049646765], [2532992.5952979433, 1152659.2642505746]]]}, "stroke-width": 2.0}}, {"type": "Feature", "geometry": {"type": "MultiLineString", "coordinates": [[[2532934.8911552913, 1152608.895626155], [2532934.878088808, 1152605.4892220888]], [[2532934.878088808, 1152605.4892220888], [2532922.1863748915, 1152605.586406889]], [[2532922.1863748915, 1152605.586406889], [2532922.203339688, 1152601.606245895]], [[2532922.203339688, 1152601.606245895], [2532922.2609210066, 1152585.452254694]], [[2532922.2609210066, 1152585.452254694], [2532898.072990514, 1152585.4691596539]], [[2532898.0535480045, 1152557.6504561994], [2532898.072990514, 1152585.4691596539]]]}, "properties": {"u": 74406500, "v": 758450, "length": 88.20780430717592, "diameter": 0.125, "geometry": {"type": "MultiLineString", "coordinates": [[[2532934.8911552913, 1152608.895626155], [2532934.878088808, 1152605.4892220888]], [[2532934.878088808, 1152605.4892220888], [2532922.1863748915, 1152605.586406889]], [[2532922.1863748915, 1152605.586406889], [2532922.203339688, 1152601.606245895]], [[2532922.203339688, 1152601.606245895], [2532922.2609210066, 1152585.452254694]], [[2532922.2609210066, 1152585.452254694], [2532898.072990514, 1152585.4691596539]], [[2532898.0535480045, 1152557.6504561994], [2532898.072990514, 1152585.4691596539]]]}, "stroke-width": 1.25}}, {"type": "Feature", "geometry": {"type": "MultiLineString", "coordinates": [[[2532944.142263618, 1152608.8601402144], [2532934.8911552913, 1152608.895626155]]]}, "properties": {"u": 74406500, "v": 744065, "length": 9.251176385752638, "diameter": 0.125, "geometry": {"type": "MultiLineString", "coordinates": [[[2532944.142263618, 1152608.8601402144], [2532934.8911552913, 1152608.895626155]]]}, "stroke-width": 1.25}}, {"type": "Feature", "geometry": {"type": "MultiLineString", "coordinates": [[[2533095.2108314624, 1152505.1605300838], [2533095.2135743606, 1152512.480183902]]]}, "properties": {"u": 75408800, "v": 754088, "length": 7.31965433207489, "diameter": 0.09, "geometry": {"type": "MultiLineString", "coordinates": [[[2533095.2108314624, 1152505.1605300838], [2533095.2135743606, 1152512.480183902]]]}, "stroke-width": 0.8999999999999999}}, {"type": "Feature", "geometry": {"type": "MultiLineString", "coordinates": [[[2533032.7172832144, 1152514.1476667565], [2533032.5734897903, 1152491.8460790692]], [[2533032.5734897903, 1152491.8460790692], [2533037.893397145, 1152491.8117780273], [2533054.4903852716, 1152491.6157478679], [2533061.502079291, 1152492.7716550364], [2533064.6762711527, 1152512.4916271635], [2533095.2135743606, 1152512.480183902]]]}, "properties": {"u": 75408800, "v": 753999, "length": 101.83765640657994, "diameter": 0.08, "geometry": {"type": "MultiLineString", "coordinates": [[[2533032.7172832144, 1152514.1476667565], [2533032.5734897903, 1152491.8460790692]], [[2533032.5734897903, 1152491.8460790692], [2533037.893397145, 1152491.8117780273], [2533054.4903852716, 1152491.6157478679], [2533061.502079291, 1152492.7716550364], [2533064.6762711527, 1152512.4916271635], [2533095.2135743606, 1152512.480183902]]]}, "stroke-width": 0.8}}]}